"profileId","speciesId","birdName","latinBirdName","recDate","countryId","country","location","latitude","longitude","recMap"
"195","2","Red-throated Loon","Gavia stellata","","","","","","",""
"195","3","Black-throated Loon","Gavia arctica","","","","","","",""
"195","4","Great Northern Loon","Gavia immer","","","","","","",""
"195","5","Yellow-billed Loon","Gavia adamsii","","","","","","",""
"195","7","Little Grebe","Tachybaptus ruficollis","","","","","","",""
"195","8","Great Crested Grebe","Podiceps cristatus","","","","","","",""
"195","9","Red-necked Grebe","Podiceps grisegena","","","","","","",""
"195","10","Horned Grebe","Podiceps auritus","","","","","","",""
"195","11","Black-necked Grebe","Podiceps nigricollis","","","","","","",""
"195","15","Northern Fulmar","Fulmarus glacialis","","","","","","",""
"195","1140","Scopoli's Shearwater","Calonectris diomedea","2011-05-01","8","Spain","Mallorca","40.010787","3.251953","http://maps.google.co.uk/maps?q=loc:40.010787, 3.251953(Scopoli's Shearwater)&z=7&iwloc=A"
"195","25","Cory's Shearwater","Calonectris borealis","2012-06-01","40","Portugal","Kap Sao vicente","37.029966","-9.003639","http://maps.google.co.uk/maps?q=loc:37.029966, -9.003639(Cory's Shearwater)&z=7&iwloc=A"
"195","30","Sooty Shearwater","Ardenna grisea","","","","","","",""
"195","31","Manx Shearwater","Puffinus puffinus","","","","","","",""
"195","32","Balearic Shearwater","Puffinus mauretanicus","","","","","","",""
"195","33","Yelkouan Shearwater","Puffinus yelkouan","","","","","","",""
"195","39","European Storm Petrel","Hydrobates pelagicus","","","","","","",""
"195","40","Leach's Storm Petrel","Oceanodroma leucorhoa","","","","","","",""
"195","47","Northern Gannet","Morus bassanus","","","","","","",""
"195","49","Great Cormorant","Phalacrocorax carbo","","","","","","",""
"195","51","European Shag","Phalacrocorax aristotelis","","","","","","",""
"195","53","Pygmy Cormorant","Microcarbo pygmeus","2015-09-17","10","Turkey","Kücükcekmece","40.989228","28.752594","http://maps.google.co.uk/maps?q=loc:40.989228, 28.752594(Pygmy Cormorant)&z=7&iwloc=A"
"195","56","Great White Pelican","Pelecanus onocrotalus","2016-05-02","23","Romania","Donau deltaet","","",""
"195","57","Dalmatian Pelican","Pelecanus crispus","2016-05-03","23","Romania","Donau deltaet","","",""
"195","60","Eurasian Bittern","Botaurus stellaris","","","","","","",""
"195","63","Little Bittern","Ixobrychus minutus","","","","","","",""
"195","66","Black-crowned Night Heron","Nycticorax nycticorax","","","","","","",""
"195","69","Squacco Heron","Ardeola ralloides","","","","","","",""
"195","72","Western Cattle Egret","Bubulcus ibis","","","","","","",""
"195","78","Little Egret","Egretta garzetta","","","","","","",""
"195","80","Great Egret","Ardea alba","","","","","","",""
"195","81","Grey Heron","Ardea cinerea","","","","","","",""
"195","84","Purple Heron","Ardea purpurea","","","","","","",""
"195","87","Black Stork","Ciconia nigra","","","","","","",""
"195","88","White Stork","Ciconia ciconia","","","","","","",""
"195","90","Glossy Ibis","Plegadis falcinellus","","","","","","",""
"195","91","Northern Bald Ibis","Geronticus eremita","","","","","","",""
"195","93","Eurasian Spoonbill","Platalea leucorodia","","","","","","",""
"195","95","Greater Flamingo","Phoenicopterus roseus","","","","","","",""
"195","100","Mute Swan","Cygnus olor","","","","","","",""
"195","101","Tundra Swan","Cygnus columbianus","","","","","","",""
"195","102","Whooper Swan","Cygnus cygnus","","","","","","",""
"195","103","Tundra Bean Goose","Anser serrirostris","","","","","","",""
"195","104","Pink-footed Goose","Anser brachyrhynchus","","","","","","",""
"195","105","Greater White-fronted Goose","Anser albifrons","","","","","","",""
"195","106","Lesser White-fronted Goose","Anser erythropus","","","","","","",""
"195","107","Greylag Goose","Anser anser","","","","","","",""
"195","109","Canada Goose","Branta canadensis","","","","","","",""
"195","110","Barnacle Goose","Branta leucopsis","","","","","","",""
"195","111","Brant Goose","Branta bernicla","","","","","","",""
"195","112","Red-breasted Goose","Branta ruficollis","","","","","","",""
"195","113","Egyptian Goose","Alopochen aegyptiaca","","","","","","",""
"195","114","Ruddy Shelduck","Tadorna ferruginea","","","","","","",""
"195","115","Common Shelduck","Tadorna tadorna","","","","","","",""
"195","120","Eurasian Wigeon","Mareca penelope","","","","","","",""
"195","123","Gadwall","Mareca strepera","","","","","","",""
"195","125","Eurasian Teal","Anas crecca","","","","","","",""
"195","126","Green-winged Teal","Anas carolinensis","","","","","","",""
"195","128","Mallard","Anas platyrhynchos","","","","","","",""
"195","130","Northern Pintail","Anas acuta","","","","","","",""
"195","132","Garganey","Spatula querquedula","","","","","","",""
"195","133","Blue-winged Teal","Spatula discors","","","","","","",""
"195","135","Northern Shoveler","Spatula clypeata","","","","","","",""
"195","136","Marbled Duck","Marmaronetta angustirostris","","","","","","",""
"195","137","Red-crested Pochard","Netta rufina","","","","","","",""
"195","138","Common Pochard","Aythya ferina","","","","","","",""
"195","141","Ring-necked Duck","Aythya collaris","","","","","","",""
"195","142","Ferruginous Duck","Aythya nyroca","2004-06-07","1","Denmark","Ejby mose, Glostrup","","",""
"195","143","Tufted Duck","Aythya fuligula","","","","","","",""
"195","144","Greater Scaup","Aythya marila","","","","","","",""
"195","145","Lesser Scaup","Aythya affinis","","","","","","",""
"195","146","Common Eider","Somateria mollissima","","","","","","",""
"195","147","King Eider","Somateria spectabilis","","","","","","",""
"195","149","Steller's Eider","Polysticta stelleri","2003-02-14","1","Denmark","Nivå bugt","","",""
"195","151","Long-tailed Duck","Clangula hyemalis","","","","","","",""
"195","152","Common Scoter","Melanitta nigra","","","","","","",""
"195","154","Velvet Scoter","Melanitta fusca","","","","","","",""
"195","157","Common Goldeneye","Bucephala clangula","","","","","","",""
"195","159","Smew","Mergellus albellus","","","","","","",""
"195","160","Red-breasted Merganser","Mergus serrator","","","","","","",""
"195","161","Common Merganser","Mergus merganser","","","","","","",""
"195","164","European Honey-buzzard","Pernis apivorus","","","","","","",""
"195","165","Crested Honey Buzzard","Pernis ptilorhyncus","2015-09-21","35","Georgia","Sakhalvasho","41.674450","41.727791","http://maps.google.co.uk/maps?q=loc:41.674450, 41.727791(Crested Honey Buzzard)&z=7&iwloc=A"
"195","167","Black-winged Kite","Elanus caeruleus","","","","","","",""
"195","168","Black Kite","Milvus migrans","","","","","","",""
"195","169","Red Kite","Milvus milvus","","","","","","",""
"195","172","White-tailed Eagle","Haliaeetus albicilla","","","","","","",""
"195","174","Bearded Vulture","Gypaetus barbatus","","","","","","",""
"195","175","Egyptian Vulture","Neophron percnopterus","","","","","","",""
"195","177","Griffon Vulture","Gyps fulvus","","","","","","",""
"195","180","Cinereous Vulture","Aegypius monachus","","","","","","",""
"195","181","Short-toed Snake Eagle","Circaetus gallicus","","","","","","",""
"195","183","Western Marsh Harrier","Circus aeruginosus","","","","","","",""
"195","184","Hen Harrier","Circus cyaneus","","","","","","",""
"195","185","Pallid Harrier","Circus macrourus","","","","","","",""
"195","186","Montagu's Harrier","Circus pygargus","","","","","","",""
"195","189","Northern Goshawk","Accipiter gentilis","","","","","","",""
"195","190","Eurasian Sparrowhawk","Accipiter nisus","","","","","","",""
"195","192","Levant Sparrowhawk","Accipiter brevipes","","","","","","",""
"195","194","Common Buzzard","Buteo buteo","","","","","","",""
"195","195","Long-legged Buzzard","Buteo rufinus","","","","","","",""
"195","196","Rough-legged Buzzard","Buteo lagopus","","","","","","",""
"195","198","Greater Spotted Eagle","Clanga clanga","","","","","","",""
"195","197","Lesser Spotted Eagle","Clanga pomarina","","","","","","",""
"195","204","Booted Eagle","Hieraaetus pennatus","","","","","","",""
"195","202","Golden Eagle","Aquila chrysaetos","","","","","","",""
"195","205","Bonelli's Eagle","Aquila fasciata","","","","","","",""
"195","200","Steppe Eagle","Aquila nipalensis","2015-09-20","35","Georgia","Sakhalvasho","41.682143","41.726074","http://maps.google.co.uk/maps?q=loc:41.682143, 41.726074(Steppe Eagle)&z=7&iwloc=A"
"195","201","Eastern Imperial Eagle","Aquila heliaca","","","","","","",""
"195","899","Spanish Imperial Eagle","Aquila adalberti","","","","","","",""
"195","206","Western Osprey","Pandion haliaetus","","","","","","",""
"195","207","Lesser Kestrel","Falco naumanni","","","","","","",""
"195","208","Common Kestrel","Falco tinnunculus","","","","","","",""
"195","210","Red-footed Falcon","Falco vespertinus","","","","","","",""
"195","212","Merlin","Falco columbarius","","","","","","",""
"195","213","Eurasian Hobby","Falco subbuteo","","","","","","",""
"195","214","Eleonora's Falcon","Falco eleonorae","","","","","","",""
"195","218","Gyrfalcon","Falco rusticolus","","","","","","",""
"195","219","Peregrine Falcon","Falco peregrinus","","","","","","",""
"195","221","Hazel Grouse","Tetrastes bonasia","","","","","","",""
"195","222","Willow Ptarmigan","Lagopus lagopus","","","","","","",""
"195","223","Rock Ptarmigan","Lagopus muta","","","","","","",""
"195","224","Black Grouse","Tetrao tetrix","","","","","","",""
"195","226","Western Capercaillie","Tetrao urogallus","","","","","","",""
"195","229","Chukar Partridge","Alectoris chukar","","","","","","",""
"195","231","Red-legged Partridge","Alectoris rufa","","","","","","",""
"195","235","Black Francolin","Francolinus francolinus","","","","","","",""
"195","237","Grey Partridge","Perdix perdix","","","","","","",""
"195","238","Common Quail","Coturnix coturnix","","","","","","",""
"195","239","Common Pheasant","Phasianus colchicus","","","","","","",""
"195","244","Water Rail","Rallus aquaticus","","","","","","",""
"195","245","Spotted Crake","Porzana porzana","","","","","","",""
"195","247","Little Crake","Porzana parva","2015-10-02","35","Georgia","Batumi","41.604661","41.578445","http://maps.google.co.uk/maps?q=loc:41.604661, 41.578445(Little Crake)&z=7&iwloc=A"
"195","248","Baillon's Crake","Porzana pusilla","","","","","","",""
"195","251","Corn Crake","Crex crex","","","","","","",""
"195","252","Common Moorhen","Gallinula chloropus","","","","","","",""
"195","256","Western Swamphen","Porphyrio porphyrio","","","","","","",""
"195","257","Eurasian Coot","Fulica atra","","","","","","",""
"195","259","Red-knobbed Coot","Fulica cristata","","","","","","",""
"195","260","Common Crane","Grus grus","","","","","","",""
"195","265","Little Bustard","Tetrax tetrax","","","","","","",""
"195","270","Great Bustard","Otis tarda","","","","","","",""
"195","272","Eurasian Oystercatcher","Haematopus ostralegus","","","","","","",""
"195","274","Black-winged Stilt","Himantopus himantopus","","","","","","",""
"195","275","Pied Avocet","Recurvirostra avosetta","","","","","","",""
"195","277","Eurasian Stone-curlew","Burhinus oedicnemus","","","","","","",""
"195","281","Collared Pratincole","Glareola pratincola","","","","","","",""
"195","283","Black-winged Pratincole","Glareola nordmanni","","","","","","",""
"195","284","Little Ringed Plover","Charadrius dubius","","","","","","",""
"195","285","Common Ringed Plover","Charadrius hiaticula","","","","","","",""
"195","289","Kentish Plover","Charadrius alexandrinus","","","","","","",""
"195","293","Eurasian Dotterel","Charadrius morinellus","","","","","","",""
"195","296","European Golden Plover","Pluvialis apricaria","","","","","","",""
"195","297","Grey Plover","Pluvialis squatarola","","","","","","",""
"195","301","Sociable Lapwing","Vanellus gregarius","","","","","","",""
"195","302","White-tailed Lapwing","Vanellus leucurus","","","","","","",""
"195","303","Northern Lapwing","Vanellus vanellus","","","","","","",""
"195","305","Red Knot","Calidris canutus","","","","","","",""
"195","306","Sanderling","Calidris alba","","","","","","",""
"195","310","Little Stint","Calidris minuta","","","","","","",""
"195","311","Temminck's Stint","Calidris temminckii","","","","","","",""
"195","316","Pectoral Sandpiper","Calidris melanotos","","","","","","",""
"195","318","Curlew Sandpiper","Calidris ferruginea","","","","","","",""
"195","319","Purple Sandpiper","Calidris maritima","","","","","","",""
"195","320","Dunlin","Calidris alpina","","","","","","",""
"195","322","Broad-billed Sandpiper","Calidris falcinellus","","","","","","",""
"195","325","Ruff","Calidris pugnax","","","","","","",""
"195","326","Jack Snipe","Lymnocryptes minimus","","","","","","",""
"195","327","Common Snipe","Gallinago gallinago","","","","","","",""
"195","328","Great Snipe","Gallinago media","","","","","","",""
"195","333","Eurasian Woodcock","Scolopax rusticola","","","","","","",""
"195","334","Black-tailed Godwit","Limosa limosa","","","","","","",""
"195","336","Bar-tailed Godwit","Limosa lapponica","","","","","","",""
"195","339","Whimbrel","Numenius phaeopus","","","","","","",""
"195","341","Eurasian Curlew","Numenius arquata","","","","","","",""
"195","353","Common Sandpiper","Actitis hypoleucos","","","","","","",""
"195","350","Green Sandpiper","Tringa ochropus","","","","","","",""
"195","343","Spotted Redshank","Tringa erythropus","","","","","","",""
"195","346","Common Greenshank","Tringa nebularia","","","","","","",""
"195","345","Marsh Sandpiper","Tringa stagnatilis","","","","","","",""
"195","351","Wood Sandpiper","Tringa glareola","","","","","","",""
"195","344","Common Redshank","Tringa totanus","","","","","","",""
"195","357","Ruddy Turnstone","Arenaria interpres","","","","","","",""
"195","359","Red-necked Phalarope","Phalaropus lobatus","","","","","","",""
"195","360","Red Phalarope","Phalaropus fulicarius","","","","","","",""
"195","361","Pomarine Jaeger","Stercorarius pomarinus","","","","","","",""
"195","362","Parasitic Jaeger","Stercorarius parasiticus","","","","","","",""
"195","363","Long-tailed Jaeger","Stercorarius longicaudus","","","","","","",""
"195","364","Great Skua","Stercorarius skua","","","","","","",""
"195","390","Black-legged Kittiwake","Rissa tridactyla","","","","","","",""
"195","378","Slender-billed Gull","Chroicocephalus genei","","","","","","",""
"195","375","Black-headed Gull","Chroicocephalus ridibundus","","","","","","",""
"195","372","Little Gull","Hydrocoloeus minutus","","","","","","",""
"195","389","Ross's Gull","Rhodostethia rosea","","","","","","",""
"195","370","Laughing Gull","Leucophaeus atricilla","","","","","","",""
"195","369","Mediterranean Gull","Ichthyaetus melanocephalus","","","","","","",""
"195","379","Audouin's Gull","Ichthyaetus audouinii","","","","","","",""
"195","368","Pallas's Gull","Ichthyaetus ichthyaetus","2016-05-04","23","Romania","Donau deltaet","45.172598","29.736900","http://maps.google.co.uk/maps?q=loc:45.172598, 29.736900(Pallas's Gull)&z=7&iwloc=A"
"195","381","Mew Gull","Larus canus","","","","","","",""
"195","382","Lesser Black-backed Gull","Larus fuscus","","","","","","",""
"195","383","European Herring Gull","Larus argentatus","","","","","","",""
"195","981","Yellow-legged Gull","Larus michahellis","","","","","","",""
"195","980","Caspian Gull","Larus cachinnans","","","","","","",""
"195","982","Armenian Gull","Larus armenicus","2015-10-02","35","Georgia","Batumi","","",""
"195","384","Iceland Gull","Larus glaucoides","","","","","","",""
"195","385","Glaucous Gull","Larus hyperboreus","","","","","","",""
"195","386","Great Black-backed Gull","Larus marinus","","","","","","",""
"195","405","Bridled Tern","Onychoprion anaethetus","","","","","","",""
"195","407","Little Tern","Sternula albifrons","","","","","","",""
"195","392","Gull-billed Tern","Gelochelidon nilotica","","","","","","",""
"195","393","Caspian Tern","Hydroprogne caspia","","","","","","",""
"195","409","Whiskered Tern","Chlidonias hybrida","","","","","","",""
"195","410","Black Tern","Chlidonias niger","","","","","","",""
"195","411","White-winged Tern","Chlidonias leucopterus","","","","","","",""
"195","397","Sandwich Tern","Thalasseus sandvicensis","","","","","","",""
"195","400","Common Tern","Sterna hirundo","","","","","","",""
"195","401","Arctic Tern","Sterna paradisaea","","","","","","",""
"195","414","Common Murre","Uria aalge","","","","","","",""
"195","416","Razorbill","Alca torda","","","","","","",""
"195","418","Black Guillemot","Cepphus grylle","","","","","","",""
"195","420","Little Auk","Alle alle","","","","","","",""
"195","423","Atlantic Puffin","Fratercula arctica","","","","","","",""
"195","429","Black-bellied Sandgrouse","Pterocles orientalis","","","","","","",""
"195","430","Pin-tailed Sandgrouse","Pterocles alchata","","","","","","",""
"195","432","Rock Dove","Columba livia","","","","","","",""
"195","433","Stock Dove","Columba oenas","","","","","","",""
"195","435","Common Wood Pigeon","Columba palumbus","","","","","","",""
"195","440","Eurasian Collared Dove","Streptopelia decaocto","","","","","","",""
"195","441","European Turtle Dove","Streptopelia turtur","","","","","","",""
"195","443","Laughing Dove","Spilopelia senegalensis","","","","","","",""
"195","445","Mourning Dove","Zenaida macroura","1997-05-20","1","Denmark","Skagen","","",""
"195","447","Rose-ringed Parakeet","Psittacula krameri","","","","","","",""
"195","449","Great Spotted Cuckoo","Clamator glandarius","","","","","","",""
"195","451","Common Cuckoo","Cuculus canorus","","","","","","",""
"195","456","Western Barn Owl","Tyto alba","","","","","","",""
"195","458","Eurasian Scops Owl","Otus scops","","","","","","",""
"195","459","Eurasian Eagle-Owl","Bubo bubo","","","","","","",""
"195","461","Snowy Owl","Bubo scandiacus","","","","","","",""
"195","462","Northern Hawk-owl","Surnia ulula","","","","","","",""
"195","463","Eurasian Pygmy Owl","Glaucidium passerinum","","","","","","",""
"195","464","Little Owl","Athene noctua","","","","","","",""
"195","465","Tawny Owl","Strix aluco","","","","","","",""
"195","467","Ural Owl","Strix uralensis","","","","","","",""
"195","468","Great Grey Owl","Strix nebulosa","","","","","","",""
"195","469","Long-eared Owl","Asio otus","","","","","","",""
"195","470","Short-eared Owl","Asio flammeus","","","","","","",""
"195","472","Boreal Owl","Aegolius funereus","","","","","","",""
"195","474","European Nightjar","Caprimulgus europaeus","","","","","","",""
"195","482","Common Swift","Apus apus","","","","","","",""
"195","483","Pallid Swift","Apus pallidus","","","","","","",""
"195","485","Alpine Swift","Tachymarptis melba","","","","","","",""
"195","486","White-rumped Swift","Apus caffer","","","","","","",""
"195","491","Common Kingfisher","Alcedo atthis","","","","","","",""
"195","495","Blue-cheeked Bee-eater","Merops persicus","","","","","","",""
"195","496","European Bee-eater","Merops apiaster","","","","","","",""
"195","498","European Roller","Coracias garrulus","","","","","","",""
"195","502","Eurasian Hoopoe","Upupa epops","","","","","","",""
"195","503","Eurasian Wryneck","Jynx torquilla","","","","","","",""
"195","505","Grey-headed Woodpecker","Picus canus","","","","","","",""
"195","506","European Green Woodpecker","Picus viridis","","","","","","",""
"195","508","Black Woodpecker","Dryocopus martius","","","","","","",""
"195","510","Great Spotted Woodpecker","Dendrocopos major","","","","","","",""
"195","511","Syrian Woodpecker","Dendrocopos syriacus","","","","","","",""
"195","512","Middle Spotted Woodpecker","Dendrocoptes medius","","","","","","",""
"195","513","White-backed Woodpecker","Dendrocopos leucotos","","","","","","",""
"195","514","Lesser Spotted Woodpecker","Dryobates minor","","","","","","",""
"195","515","Eurasian Three-toed Woodpecker","Picoides tridactylus","","","","","","",""
"195","520","Black-crowned Sparrow-lark","Eremopterix nigriceps","2015-10-02","35","Georgia","Batumi","41.609795","41.584625","http://maps.google.co.uk/maps?q=loc:41.609795, 41.584625(Black-crowned Sparrow-lark)&z=7&iwloc=A"
"195","527","Calandra Lark","Melanocorypha calandra","","","","","","",""
"195","529","White-winged Lark","Alauda leucoptera","2017-11-12","61","Azerbaijan","Besh Barmaq migration count","","",""
"195","531","Greater Short-toed Lark","Calandrella brachydactyla","","","","","","",""
"195","533","Lesser Short-toed Lark","Calandrella rufescens","","","","","","",""
"195","534","Crested Lark","Galerida cristata","","","","","","",""
"195","535","Thekla's Lark","Galerida theklae","","","","","","",""
"195","536","Woodlark","Lullula arborea","","","","","","",""
"195","538","Eurasian Skylark","Alauda arvensis","","","","","","",""
"195","540","Horned Lark","Eremophila alpestris","","","","","","",""
"195","543","Sand Martin","Riparia riparia","","","","","","",""
"195","547","Eurasian Crag Martin","Ptyonoprogne rupestris","","","","","","",""
"195","548","Barn Swallow","Hirundo rustica","","","","","","",""
"195","553","Common House Martin","Delichon urbicum","","","","","","",""
"195","551","Red-rumped Swallow","Cecropis daurica","","","","","","",""
"195","554","Richard's Pipit","Anthus richardi","","","","","","",""
"195","556","Tawny Pipit","Anthus campestris","","","","","","",""
"195","560","Tree Pipit","Anthus trivialis","","","","","","",""
"195","562","Meadow Pipit","Anthus pratensis","","","","","","",""
"195","563","Red-throated Pipit","Anthus cervinus","","","","","","",""
"195","564","Eurasian Rock Pipit","Anthus petrosus","","","","","","",""
"195","565","Water Pipit","Anthus spinoletta","","","","","","",""
"195","567","Western Yellow Wagtail","Motacilla flava","","","","","","",""
"195","568","Citrine Wagtail","Motacilla citreola","","","","","","",""
"195","569","Grey Wagtail","Motacilla cinerea","","","","","","",""
"195","570","White Wagtail","Motacilla alba","","","","","","",""
"195","573","White-spectacled Bulbul","Pycnonotus xanthopygos","","","","","","",""
"195","575","Bohemian Waxwing","Bombycilla garrulus","","","","","","",""
"195","578","White-throated Dipper","Cinclus cinclus","","","","","","",""
"195","579","Eurasian Wren","Troglodytes troglodytes","","","","","","",""
"195","583","Dunnock","Prunella modularis","","","","","","",""
"195","587","Alpine Accentor","Prunella collaris","","","","","","",""
"195","588","Rufous-tailed Scrub Robin","Cercotrichas galactotes","","","","","","",""
"195","590","European Robin","Erithacus rubecula","","","","","","",""
"195","591","Thrush Nightingale","Luscinia luscinia","","","","","","",""
"195","592","Common Nightingale","Luscinia megarhynchos","","","","","","",""
"195","594","Bluethroat","Luscinia svecica","","","","","","",""
"195","599","Black Redstart","Phoenicurus ochruros","","","","","","",""
"195","600","Common Redstart","Phoenicurus phoenicurus","","","","","","",""
"195","604","Whinchat","Saxicola rubetra","","","","","","",""
"195","606","European Stonechat","Saxicola torquatus","","","","","","",""
"195","609","Isabelline Wheatear","Oenanthe isabellina","","","","","","",""
"195","610","Northern Wheatear","Oenanthe oenanthe","","","","","","",""
"195","612","Black-eared Wheatear","Oenanthe hispanica","","","","","","",""
"195","614","Finsch's Wheatear","Oenanthe finschii","","","","","","",""
"195","624","Blue Rock Thrush","Monticola solitarius","","","","","","",""
"195","634","Ring Ouzel","Turdus torquatus","","","","","","",""
"195","635","Common Blackbird","Turdus merula","","","","","","",""
"195","638","Black-throated Thrush","Turdus atrogularis","","","","","","",""
"195","639","Fieldfare","Turdus pilaris","","","","","","",""
"195","640","Song Thrush","Turdus philomelos","","","","","","",""
"195","641","Redwing","Turdus iliacus","","","","","","",""
"195","642","Mistle Thrush","Turdus viscivorus","","","","","","",""
"195","644","Cetti's Warbler","Cettia cetti","","","","","","",""
"195","645","Zitting Cisticola","Cisticola juncidis","","","","","","",""
"195","647","Graceful Prinia","Prinia gracilis","","","","","","",""
"195","651","Common Grasshopper Warbler","Locustella naevia","","","","","","",""
"195","652","River Warbler","Locustella fluviatilis","","","","","","",""
"195","653","Savi's Warbler","Locustella luscinioides","","","","","","",""
"195","655","Moustached Warbler","Acrocephalus melanopogon","","","","","","",""
"195","656","Aquatic Warbler","Acrocephalus paludicola","2017-08-09","39","Poland","Biebrza -  ?cie?ka „D?uga Luka”","53.287205","22.610593","http://maps.google.co.uk/maps?q=loc:53.287205, 22.610593(Aquatic Warbler)&z=7&iwloc=A"
"195","657","Sedge Warbler","Acrocephalus schoenobaenus","","","","","","",""
"195","658","Paddyfield Warbler","Acrocephalus agricola","","","","","","",""
"195","659","Blyth's Reed Warbler","Acrocephalus dumetorum","","","","","","",""
"195","661","Marsh Warbler","Acrocephalus palustris","","","","","","",""
"195","662","Eurasian Reed Warbler","Acrocephalus scirpaceus","","","","","","",""
"195","664","Great Reed Warbler","Acrocephalus arundinaceus","","","","","","",""
"195","667","Eastern Olivaceous Warbler","Iduna pallida","","","","","","",""
"195","671","Icterine Warbler","Hippolais icterina","","","","","","",""
"195","672","Melodious Warbler","Hippolais polyglotta","","","","","","",""
"195","673","Marmora's Warbler","Sylvia sarda","","","","","","",""
"195","984","Balearic Warbler","Sylvia balearica","","","","","","",""
"195","674","Dartford Warbler","Sylvia undata","","","","","","",""
"195","676","Spectacled Warbler","Sylvia conspicillata","","","","","","",""
"195","677","Subalpine Warbler","Sylvia cantillans","","","","","","",""
"195","679","Sardinian Warbler","Sylvia melanocephala","","","","","","",""
"195","985","Eastern Orphean Warbler","Sylvia crassirostris","","","","","","",""
"195","685","Barred Warbler","Sylvia nisoria","","","","","","",""
"195","686","Lesser Whitethroat","Sylvia curruca","","","","","","",""
"195","687","Common Whitethroat","Sylvia communis","","","","","","",""
"195","688","Garden Warbler","Sylvia borin","","","","","","",""
"195","689","Eurasian Blackcap","Sylvia atricapilla","","","","","","",""
"195","690","Greenish Warbler","Phylloscopus trochiloides","","","","","","",""
"195","693","Yellow-browed Warbler","Phylloscopus inornatus","","","","","","",""
"195","697","Western Bonelli's Warbler","Phylloscopus bonelli","","","","","","",""
"195","699","Wood Warbler","Phylloscopus sibilatrix","","","","","","",""
"195","701","Common Chiffchaff","Phylloscopus collybita","","","","","","",""
"195","705","Willow Warbler","Phylloscopus trochilus","","","","","","",""
"195","707","Goldcrest","Regulus regulus","","","","","","",""
"195","708","Common Firecrest","Regulus ignicapilla","","","","","","",""
"195","710","Spotted Flycatcher","Muscicapa striata","","","","","","",""
"195","711","Red-breasted Flycatcher","Ficedula parva","","","","","","",""
"195","713","Collared Flycatcher","Ficedula albicollis","","","","","","",""
"195","714","European Pied Flycatcher","Ficedula hypoleuca","","","","","","",""
"195","715","Bearded Reedling","Panurus biarmicus","","","","","","",""
"195","720","Long-tailed Tit","Aegithalos caudatus","","","","","","",""
"195","727","Eurasian Blue Tit","Cyanistes caeruleus","","","","","","",""
"195","729","Great Tit","Parus major","","","","","","",""
"195","725","European Crested Tit","Lophophanes cristatus","","","","","","",""
"195","726","Coal Tit","Periparus ater","","","","","","",""
"195","721","Marsh Tit","Poecile palustris","","","","","","",""
"195","723","Willow Tit","Poecile montanus","","","","","","",""
"195","724","Grey-headed Chickadee","Poecile cinctus","","","","","","",""
"195","730","Krüper's Nuthatch","Sitta krueperi","","","","","","",""
"195","734","Eurasian Nuthatch","Sitta europaea","","","","","","",""
"195","736","Western Rock Nuthatch","Sitta neumayer","","","","","","",""
"195","737","Wallcreeper","Tichodroma muraria","","","","","","",""
"195","738","Eurasian Treecreeper","Certhia familiaris","","","","","","",""
"195","739","Short-toed Treecreeper","Certhia brachydactyla","","","","","","",""
"195","740","Eurasian Penduline Tit","Remiz pendulinus","1989-01-01","1","Denmark","Han Vejle","","",""
"195","744","Eurasian Golden Oriole","Oriolus oriolus","","","","","","",""
"195","748","Red-backed Shrike","Lanius collurio","","","","","","",""
"195","750","Lesser Grey Shrike","Lanius minor","","","","","","",""
"195","751","Great Grey Shrike","Lanius excubitor","","","","","","",""
"195","752","Iberian Grey Shrike","Lanius meridionalis","","","","","","",""
"195","753","Woodchat Shrike","Lanius senator","","","","","","",""
"195","754","Masked Shrike","Lanius nubicus","","","","","","",""
"195","756","Eurasian Jay","Garrulus glandarius","","","","","","",""
"195","757","Siberian Jay","Perisoreus infaustus","","","","","","",""
"195","758","Iberian Magpie","Cyanopica cooki","","","","","","",""
"195","759","Eurasian Magpie","Pica pica","","","","","","",""
"195","760","Spotted Nutcracker","Nucifraga caryocatactes","","","","","","",""
"195","761","Alpine Chough","Pyrrhocorax graculus","","","","","","",""
"195","762","Red-billed Chough","Pyrrhocorax pyrrhocorax","","","","","","",""
"195","763","Western Jackdaw","Corvus monedula","","","","","","",""
"195","766","Rook","Corvus frugilegus","","","","","","",""
"195","914","Carrion Crow","Corvus corone","","","","","","",""
"195","767","Hooded Crow","Corvus cornix","","","","","","",""
"195","770","Northern Raven","Corvus corax","","","","","","",""
"195","775","Spotless Starling","Sturnus unicolor","","","","","","",""
"195","774","Common Starling","Sturnus vulgaris","","","","","","",""
"195","776","Rosy Starling","Pastor roseus","","","","","","",""
"195","778","House Sparrow","Passer domesticus","","","","","","",""
"195","779","Spanish Sparrow","Passer hispaniolensis","","","","","","",""
"195","783","Eurasian Tree Sparrow","Passer montanus","","","","","","",""
"195","787","Rock Sparrow","Petronia petronia","","","","","","",""
"195","788","White-winged Snowfinch","Montifringilla nivalis","","","","","","",""
"195","798","Common Chaffinch","Fringilla coelebs","","","","","","",""
"195","800","Brambling","Fringilla montifringilla","","","","","","",""
"195","802","European Serin","Serinus serinus","","","","","","",""
"195","805","Citril Finch","Carduelis citrinella","","","","","","",""
"195","807","European Greenfinch","Chloris chloris","","","","","","",""
"195","808","European Goldfinch","Carduelis carduelis","","","","","","",""
"195","809","Eurasian Siskin","Spinus spinus","","","","","","",""
"195","810","Common Linnet","Linaria cannabina","","","","","","",""
"195","811","Twite","Linaria flavirostris","","","","","","",""
"195","812","Lesser Redpoll","Acanthis cabaret","","","","","","",""
"195","813","Common Redpoll","Acanthis flammea","","","","","","",""
"195","814","Arctic Redpoll","Acanthis hornemanni","","","","","","",""
"195","815","Two-barred Crossbill","Loxia leucoptera","","","","","","",""
"195","816","Red Crossbill","Loxia curvirostra","","","","","","",""
"195","818","Parrot Crossbill","Loxia pytyopsittacus","","","","","","",""
"195","823","Common Rosefinch","Carpodacus erythrinus","","","","","","",""
"195","828","Eurasian Bullfinch","Pyrrhula pyrrhula","","","","","","",""
"195","829","Hawfinch","Coccothraustes coccothraustes","","","","","","",""
"195","865","Lapland Longspur","Calcarius lapponicus","","","","","","",""
"195","866","Snow Bunting","Plectrophenax nivalis","","","","","","",""
"195","869","Yellowhammer","Emberiza citrinella","","","","","","",""
"195","870","Cirl Bunting","Emberiza cirlus","","","","","","",""
"195","871","Rock Bunting","Emberiza cia","","","","","","",""
"195","874","Ortolan Bunting","Emberiza hortulana","","","","","","",""
"195","878","Rustic Bunting","Emberiza rustica","","","","","","",""
"195","879","Little Bunting","Emberiza pusilla","","","","","","",""
"195","882","Common Reed Bunting","Emberiza schoeniclus","","","","","","",""
"195","885","Black-headed Bunting","Emberiza melanocephala","","","","","","",""
"195","886","Corn Bunting","Emberiza calandra","","","","","","",""
